[{"OBJECT_NAME":"OBJECT A","OBJECT_ID":"2023-189A","EPOCH":"2026-03-09T22:59:06.381600","MEAN_MOTION":15.32403275,"ECCENTRICITY":0.00094831,"INCLINATION":97.4458,"RA_OF_ASC_NODE":86.5997,"ARG_OF_PERICENTER":249.5377,"MEAN_ANOMALY":110.4847,"EPHEMERIS_TYPE":0,"CLASSIFICATION_TYPE":"U","NORAD_CAT_ID":58502,"ELEMENT_SET_NO":999,"REV_AT_EPOCH":12601,"BSTAR":0.00019874471,"MEAN_MOTION_DOT":6.146e-5,"MEAN_MOTION_DDOT":0},{"OBJECT_NAME":"STARLINK-33579","OBJECT_ID":"2025-015G","EPOCH":"2026-03-09T22:26:05.816256","MEAN_MOTION":15.30224913,"ECCENTRICITY":0.0001458,"INCLINATION":53.1584,"RA_OF_ASC_NODE":320.968,"ARG_OF_PERICENTER":139.9087,"MEAN_ANOMALY":220.2021,"EPHEMERIS_TYPE":0,"CLASSIFICATION_TYPE":"U","NORAD_CAT_ID":62764,"ELEMENT_SET_NO":999,"REV_AT_EPOCH":6452,"BSTAR":0.0011321497,"MEAN_MOTION_DOT":0.00033348,"MEAN_MOTION_DDOT":0}]
